start=new Date('2023-01-13T00:00:00.000Z').valueOf();
sats=[{"REF_FRAME":"TEME","MEAN_MOTION_DOT":"-0.00004486","SITE":"AFETR","ELEMENT_SET_NO":"999","TLE_LINE2":"2 45078  53.0571  39.6762 0001589  47.9067 312.2056 15.06366776163046","MEAN_MOTION_DDOT":"0.0000000000000","PERIOD":"95.594","APOAPSIS":"548.416","MEAN_ANOMALY":"312.2056","RA_OF_ASC_NODE":"39.6762","DECAY_DATE":null,"BSTAR":"-0.00028268000000","EPHEMERIS_TYPE":"0","RCS_SIZE":"LARGE","TLE_LINE1":"1 45078U 20006AL  23012.35132755 -.00004486  00000-0 -28268-3 0  9994","TIME_SYSTEM":"UTC","ECCENTRICITY":"0.00015890","MEAN_ELEMENT_THEORY":"SGP4","EPOCH":"2023-01-12T08:25:54.700320","OBJECT_ID":"2020-006AL","CLASSIFICATION_TYPE":"U","REV_AT_EPOCH":"16304","LAUNCH_DATE":"2020-01-29","INCLINATION":"53.0571","OBJECT_TYPE":"PAYLOAD","NORAD_CAT_ID":"45078","FILE":"3742227","CENTER_NAME":"EARTH","COUNTRY_CODE":"US","ARG_OF_PERICENTER":"47.9067","OBJECT_NAME":"STARLINK-1177","GP_ID":"222886966","SEMIMAJOR_AXIS":"6925.450","MEAN_MOTION":"15.06366776","PERIAPSIS":"546.215"},{"CLASSIFICATION_TYPE":"U","LAUNCH_DATE":"2020-01-29","REV_AT_EPOCH":"16311","INCLINATION":"53.0548","TIME_SYSTEM":"UTC","ECCENTRICITY":"0.00015940","MEAN_ELEMENT_THEORY":"SGP4","EPOCH":"2023-01-12T19:01:28.189632","OBJECT_ID":"2020-006AM","GP_ID":"222885718","MEAN_MOTION":"15.06393278","SEMIMAJOR_AXIS":"6925.369","PERIAPSIS":"546.130","CENTER_NAME":"EARTH","OBJECT_TYPE":"PAYLOAD","FILE":"3742227","NORAD_CAT_ID":"45079","OBJECT_NAME":"STARLINK-1149","COUNTRY_CODE":"US","ARG_OF_PERICENTER":"68.3027","TLE_LINE2":"2 45079  53.0548  37.6837 0001594  68.3027 291.8132 15.06393278163113","APOAPSIS":"548.338","PERIOD":"95.593","MEAN_ANOMALY":"291.8132","MEAN_MOTION_DDOT":"0.0000000000000","MEAN_MOTION_DOT":"-0.00000328","REF_FRAME":"TEME","ELEMENT_SET_NO":"999","SITE":"AFETR","EPHEMERIS_TYPE":"0","RCS_SIZE":"LARGE","TLE_LINE1":"1 45079U 20006AM  23012.79268738 -.00000328  00000-0 -31325-5 0  9995","RA_OF_ASC_NODE":"37.6837","BSTAR":"-0.00000313250000","DECAY_DATE":null},{"LAUNCH_DATE":"2020-01-29","INCLINATION":"53.0550","REV_AT_EPOCH":"16312","CLASSIFICATION_TYPE":"U","TIME_SYSTEM":"UTC","ECCENTRICITY":"0.00024660","OBJECT_ID":"2020-006AN","EPOCH":"2023-01-12T19:13:24.734208","MEAN_ELEMENT_THEORY":"SGP4","GP_ID":"222885968","PERIAPSIS":"545.458","SEMIMAJOR_AXIS":"6925.301","MEAN_MOTION":"15.06415541","NORAD_CAT_ID":"45080","FILE":"3742227","OBJECT_TYPE":"PAYLOAD","CENTER_NAME":"EARTH","ARG_OF_PERICENTER":"43.8629","COUNTRY_CODE":"US","OBJECT_NAME":"STARLINK-1153","TLE_LINE2":"2 45080  53.0550  37.6571 0002466  43.8629 316.2556 15.06415541163129","MEAN_MOTION_DDOT":"0.0000000000000","APOAPSIS":"548.874","PERIOD":"95.591","MEAN_ANOMALY":"316.2556","REF_FRAME":"TEME","MEAN_MOTION_DOT":"0.00002914","SITE":"AFETR","ELEMENT_SET_NO":"999","RCS_SIZE":"LARGE","EPHEMERIS_TYPE":"0","TLE_LINE1":"1 45080U 20006AN  23012.80098072  .00002914  00000-0  21437-3 0  9993","RA_OF_ASC_NODE":"37.6571","DECAY_DATE":null,"BSTAR":"0.00021437000000"},{"RA_OF_ASC_NODE":"37.7368","BSTAR":"-0.00016574000000","DECAY_DATE":null,"RCS_SIZE":"LARGE","EPHEMERIS_TYPE":"0","TLE_LINE1":"1 45081U 20006AP  23012.77792631 -.00002749  00000-0 -16574-3 0  9996","MEAN_MOTION_DOT":"-0.00002749","REF_FRAME":"TEME","ELEMENT_SET_NO":"999","SITE":"AFETR","TLE_LINE2":"2 45081  53.0554  37.7368 0002096  39.2981 320.8159 15.06397108163126","APOAPSIS":"548.674","PERIOD":"95.592","MEAN_ANOMALY":"320.8159","MEAN_MOTION_DDOT":"0.0000000000000","CENTER_NAME":"EARTH","NORAD_CAT_ID":"45081","FILE":"3742227","OBJECT_TYPE":"PAYLOAD","OBJECT_NAME":"STARLINK-1151","ARG_OF_PERICENTER":"39.2981","COUNTRY_CODE":"US","GP_ID":"222887218","PERIAPSIS":"545.771","SEMIMAJOR_AXIS":"6925.357","MEAN_MOTION":"15.06397108","ECCENTRICITY":"0.00020960","TIME_SYSTEM":"UTC","OBJECT_ID":"2020-006AP","EPOCH":"2023-01-12T18:40:12.833184","MEAN_ELEMENT_THEORY":"SGP4","REV_AT_EPOCH":"16312","LAUNCH_DATE":"2020-01-29","INCLINATION":"53.0554","CLASSIFICATION_TYPE":"U"},{"APOAPSIS":"548.686","MEAN_ANOMALY":"307.5759","PERIOD":"95.593","MEAN_MOTION_DDOT":"0.0000000000000","TLE_LINE2":"2 45082  53.0542  37.7969 0002058  52.5416 307.5759 15.06384563163118","ELEMENT_SET_NO":"999","SITE":"AFETR","MEAN_MOTION_DOT":"0.00012487","REF_FRAME":"TEME","TLE_LINE1":"1 45082U 20006AQ  23012.76689197  .00012487  00000-0  85605-3 0  9997","EPHEMERIS_TYPE":"0","RCS_SIZE":"LARGE","BSTAR":"0.00085605000000","DECAY_DATE":null,"RA_OF_ASC_NODE":"37.7969","CLASSIFICATION_TYPE":"U","INCLINATION":"53.0542","LAUNCH_DATE":"2020-01-29","REV_AT_EPOCH":"16311","EPOCH":"2023-01-12T18:24:19.466208","MEAN_ELEMENT_THEORY":"SGP4","OBJECT_ID":"2020-006AQ","TIME_SYSTEM":"UTC","ECCENTRICITY":"0.00020580","SEMIMAJOR_AXIS":"6925.396","MEAN_MOTION":"15.06384563","PERIAPSIS":"545.836","GP_ID":"222887465","OBJECT_NAME":"STARLINK-1160","COUNTRY_CODE":"US","ARG_OF_PERICENTER":"52.5416","CENTER_NAME":"EARTH","OBJECT_TYPE":"PAYLOAD","NORAD_CAT_ID":"45082","FILE":"3742227"},{"RA_OF_ASC_NODE":"59.4399","DECAY_DATE":null,"BSTAR":"-0.00019910000000","EPHEMERIS_TYPE":"0","RCS_SIZE":"LARGE","TLE_LINE1":"1 45083U 20006AR  23012.40108255 -.00003244  00000-0 -19910-3 0  9999","REF_FRAME":"TEME","MEAN_MOTION_DOT":"-0.00003244","SITE":"AFETR","ELEMENT_SET_NO":"999","TLE_LINE2":"2 45083  53.0542  59.4399 0001897  44.4967 315.6174 15.06376137162789","MEAN_MOTION_DDOT":"0.0000000000000","APOAPSIS":"548.600","PERIOD":"95.594","MEAN_ANOMALY":"315.6174","OBJECT_TYPE":"PAYLOAD","FILE":"3742227","NORAD_CAT_ID":"45083","CENTER_NAME":"EARTH","COUNTRY_CODE":"US","ARG_OF_PERICENTER":"44.4967","OBJECT_NAME":"STARLINK-1190","GP_ID":"222886217","MEAN_MOTION":"15.06376137","SEMIMAJOR_AXIS":"6925.422","PERIAPSIS":"545.973","TIME_SYSTEM":"UTC","ECCENTRICITY":"0.00018970","MEAN_ELEMENT_THEORY":"SGP4","EPOCH":"2023-01-12T09:37:33.532320","OBJECT_ID":"2020-006AR","CLASSIFICATION_TYPE":"U","REV_AT_EPOCH":"16278","LAUNCH_DATE":"2020-01-29","INCLINATION":"53.0542"},{"RCS_SIZE":"LARGE","EPHEMERIS_TYPE":"0","TLE_LINE1":"1 45084U 20006AS  23012.91343343 -.00000274  00000-0  48057-6 0  9991","RA_OF_ASC_NODE":"17.1540","BSTAR":"0.00000048057000","DECAY_DATE":null,"TLE_LINE2":"2 45084  53.0521  17.1540 0001523 101.8461 258.2699 15.06392253163422","PERIOD":"95.593","APOAPSIS":"548.292","MEAN_ANOMALY":"258.2699","MEAN_MOTION_DDOT":"0.0000000000000","MEAN_MOTION_DOT":"-0.00000274","REF_FRAME":"TEME","ELEMENT_SET_NO":"999","SITE":"AFETR","GP_ID":"222886467","PERIAPSIS":"546.183","SEMIMAJOR_AXIS":"6925.372","MEAN_MOTION":"15.06392253","CENTER_NAME":"EARTH","NORAD_CAT_ID":"45084","FILE":"3742227","OBJECT_TYPE":"PAYLOAD","OBJECT_NAME":"STARLINK-1173","ARG_OF_PERICENTER":"101.8461","COUNTRY_CODE":"US","LAUNCH_DATE":"2020-01-29","INCLINATION":"53.0521","REV_AT_EPOCH":"16342","CLASSIFICATION_TYPE":"U","TIME_SYSTEM":"UTC","ECCENTRICITY":"0.00015230","OBJECT_ID":"2020-006AS","MEAN_ELEMENT_THEORY":"SGP4","EPOCH":"2023-01-12T21:55:20.648352"},{"DECAY_DATE":null,"BSTAR":"0.00004137300000","RA_OF_ASC_NODE":"18.0652","TLE_LINE1":"1 45085U 20006AT  23012.71070845  .00000334  00000-0  41373-4 0  9992","RCS_SIZE":"LARGE","EPHEMERIS_TYPE":"0","SITE":"AFETR","ELEMENT_SET_NO":"999","REF_FRAME":"TEME","MEAN_MOTION_DOT":"0.00000334","MEAN_MOTION_DDOT":"0.0000000000000","MEAN_ANOMALY":"287.4753","APOAPSIS":"548.464","PERIOD":"95.593","TLE_LINE2":"2 45085  53.0561  18.0652 0001738  72.6426 287.4753 15.06384634163390","ARG_OF_PERICENTER":"72.6426","COUNTRY_CODE":"US","OBJECT_NAME":"STARLINK-1179","NORAD_CAT_ID":"45085","FILE":"3742227","OBJECT_TYPE":"PAYLOAD","CENTER_NAME":"EARTH","PERIAPSIS":"546.057","MEAN_MOTION":"15.06384634","SEMIMAJOR_AXIS":"6925.396","GP_ID":"222886719","OBJECT_ID":"2020-006AT","EPOCH":"2023-01-12T17:03:25.210080","MEAN_ELEMENT_THEORY":"SGP4","TIME_SYSTEM":"UTC","ECCENTRICITY":"0.00017380","REV_AT_EPOCH":"16339","LAUNCH_DATE":"2020-01-29","INCLINATION":"53.0561","CLASSIFICATION_TYPE":"U"},{"MEAN_MOTION_DDOT":"0.0000000000000","MEAN_ANOMALY":"313.8160","APOAPSIS":"476.437","PERIOD":"94.092","TLE_LINE2":"2 45086  52.9819 344.1588 0002746  46.3065 313.8160 15.30421761163759","SITE":"AFETR","ELEMENT_SET_NO":"999","REF_FRAME":"TEME","MEAN_MOTION_DOT":"0.00085665","TLE_LINE1":"1 45086U 20006AU  23012.90858436  .00085665  00000-0  28512-2 0  9992","EPHEMERIS_TYPE":"0","RCS_SIZE":"LARGE","DECAY_DATE":null,"BSTAR":"0.00285120000000","RA_OF_ASC_NODE":"344.1588","CLASSIFICATION_TYPE":"U","LAUNCH_DATE":"2020-01-29","INCLINATION":"52.9819","REV_AT_EPOCH":"16375","EPOCH":"2023-01-12T21:48:21.688704","MEAN_ELEMENT_THEORY":"SGP4","OBJECT_ID":"2020-006AU","TIME_SYSTEM":"UTC","ECCENTRICITY":"0.00027460","MEAN_MOTION":"15.30421761","SEMIMAJOR_AXIS":"6852.690","PERIAPSIS":"472.673","GP_ID":"222886967","COUNTRY_CODE":"US","ARG_OF_PERICENTER":"46.3065","OBJECT_NAME":"STARLINK-1181","OBJECT_TYPE":"PAYLOAD","NORAD_CAT_ID":"45086","FILE":"3742227","CENTER_NAME":"EARTH"},{"OBJECT_NAME":"STARLINK-1185","ARG_OF_PERICENTER":"84.2078","COUNTRY_CODE":"US","CENTER_NAME":"EARTH","NORAD_CAT_ID":"45087","FILE":"3742227","OBJECT_TYPE":"PAYLOAD","PERIAPSIS":"545.907","MEAN_MOTION":"15.06409964","SEMIMAJOR_AXIS":"6925.318","GP_ID":"222885719","OBJECT_ID":"2020-006AV","EPOCH":"2023-01-12T10:20:01.338720","MEAN_ELEMENT_THEORY":"SGP4","ECCENTRICITY":"0.00018420","TIME_SYSTEM":"UTC","LAUNCH_DATE":"2020-01-29","INCLINATION":"53.0535","REV_AT_EPOCH":"16335","CLASSIFICATION_TYPE":"U","BSTAR":"0.00034435000000","DECAY_DATE":null,"RA_OF_ASC_NODE":"19.3171","TLE_LINE1":"1 45087U 20006AV  23012.43057105  .00004853  00000-0  34435-3 0  9997","RCS_SIZE":"LARGE","EPHEMERIS_TYPE":"0","ELEMENT_SET_NO":"999","SITE":"AFETR","MEAN_MOTION_DOT":"0.00004853","REF_FRAME":"TEME","PERIOD":"95.592","APOAPSIS":"548.459","MEAN_ANOMALY":"275.9121","MEAN_MOTION_DDOT":"0.0000000000000","TLE_LINE2":"2 45087  53.0535  19.3171 0001842  84.2078 275.9121 15.06409964163352"}];
